<?xml version="1.0" encoding="UTF-8" standalone="yes"?>
<kml xmlns="http://www.opengis.net/kml/2.2" xmlns:ns2="http://www.google.com/kml/ext/2.2" xmlns:ns3="http://www.w3.org/2005/Atom" xmlns:ns4="urn:oasis:names:tc:ciq:xsdschema:xAL:2.0">
    <Document>
        <LookAt>
            <longitude>-105.50898467211803</longitude>
            <latitude>28.151122898488566</latitude>
            <altitude>52727.91988596018</altitude>
            <heading>0.0</heading>
            <tilt>0.0</tilt>
            <range>42606.92493532601</range>
            <altitudeMode>clampToGround</altitudeMode>
        </LookAt>
        <NetworkLink>
            <name>mun_08021_27496d4410670ad0839a579da1645e27</name>
            <visibility>1</visibility>
            <open>1</open>
            <LookAt>
                <longitude>-105.50904918039777</longitude>
                <latitude>28.151126784215485</latitude>
                <altitude>60919.19050482123</altitude>
                <heading>0.0</heading>
                <tilt>0.0</tilt>
                <range>49225.901241191685</range>
                <altitudeMode>clampToGround</altitudeMode>
            </LookAt>
            <Url>
                <href>https://ide.sedatu.gob.mx/geoserver/wms?service=wms&amp;request=GetMap&amp;version=1.1.1&amp;format=application/vnd.google-earth.kml+xml&amp;layers=geonode:mun_08021_27496d4410670ad0839a579da1645e27&amp;styles=mun_08021_27496d4410670ad0839a579da1645e27&amp;height=2048&amp;width=2048&amp;transparent=false&amp;srs=EPSG:4326&amp;format_options=AUTOFIT:true;KMATTR:true;KMPLACEMARK:false;KMSCORE:40;MODE:refresh;SUPEROVERLAY:false</href>
                <refreshInterval>0.0</refreshInterval>
                <viewRefreshMode>onStop</viewRefreshMode>
                <viewRefreshTime>1.0</viewRefreshTime>
                <viewBoundScale>1.0</viewBoundScale>
            </Url>
        </NetworkLink>
    </Document>
</kml>
